SAUDISAT 5A             
1 43831U 18102A   26156.70445990  .00006124  00000+0  22709-3 0  9994
2 43831  97.3067 218.5074 0010111 165.5142 194.6390 15.27925318413922
SAUDISAT 5B             
1 43833U 18102C   26156.59429808  .00006004  00000+0  22090-3 0  9993
2 43833  97.3175 221.4480 0010727 168.5133 191.6353 15.28187240414027
GAOFEN-10R              
1 44622U 19066A   26156.75141332  .00001274  00000+0  16339-3 0  9994
2 44622  98.0497 110.2478 0005836 159.8687 200.2757 14.83034871360681
CARTOSAT-3              
1 44804U 19081A   26156.82865303  .00005298  00000+0  25447-3 0  9992
2 44804  97.4306 218.8783 0012252 186.7519 173.3552 15.19201699361747
GAOFEN-12 01            
1 44819U 19082A   26156.72491376  .00000451  00000+0  65558-4 0  9997
2 44819  97.8101 163.4070 0002507  83.9095 276.2403 14.80448999352395
CSG-1                   
1 44873U 19092A   26156.77708410  .00000475  00000+0  66181-4 0  9992
2 44873  97.8887 340.5450 0001440  91.2589 268.8789 14.82154943349789
NEMO-HD                 
1 46277U 20061F   26156.59726869  .00011266  00000+0  24606-3 0  9993
2 46277  97.1920 218.6688 0002657  93.7596 266.3957 15.44351274320193
SENTINEL-6A             
1 46984U 20086A   26156.37409291 -.00000055  00000+0  26461-4 0  9995
2 46984  66.0384 159.5883 0007954 270.2058  89.8046 12.80929664258814
CAS500-1                
1 47932U 21022A   26156.74131304  .00007180  00000+0  33444-3 0  9991
2 47932  97.3908  52.2254 0004448 347.7274  12.3852 15.20195848289022
GAOFEN-12 02            
1 48079U 21026A   26156.73474836  .00000434  00000+0  63959-4 0  9997
2 48079  97.9920 154.9624 0003321 273.6782  86.4050 14.80287029280061
PLEIADES NEO 3          
1 48268U 21034A   26156.57002735  .00000281  00000+0  42291-4 0  9999
2 48268  97.8935 231.5042 0001394  99.1938 260.9433 14.81673923275931
PLEIADES NEO 4          
1 49070U 21073E   26156.80638426  .00001263  00000+0  16712-3 0  9991
2 49070  97.8935 231.7326 0001345  95.3769 264.7597 14.81672211259682
LANDSAT 9               
1 49260U 21088A   26156.04192041  .00000422  00000+0  10362-3 0  9993
2 49260  98.1854 226.3638 0001503  95.7050 264.4320 14.57126109249230
CSG-2                   
1 51444U 22008A   26156.74330426  .00000758  00000+0  10176-3 0  9996
2 51444  97.8882 340.5066 0001470  81.9332 278.2048 14.82166823234892
GAOFEN-12 03            
1 52912U 22069A   26156.69497003  .00000433  00000+0  63863-4 0  9995
2 52912  97.8290  44.8540 0001505 110.1849 249.9525 14.80013836212911
SWOT                    
1 54754U 22173A   26156.69846977  .00000005  00000+0  53617-5 0  9997
2 54754  77.6112  50.8192 0000179 101.0524 259.0647 14.00168192177545
GAOFEN-12 04            
1 57654U 23123A   26156.71315649  .00001122  00000+0  15438-3 0  9993
2 57654  97.9128  74.8956 0001771  88.4582 271.6832 14.80206006150939
PARS 1                  
1 59065U 24039Q   26156.72575744  .00011704  00000+0  24560-3 0  9996
2 59065  97.4825 137.2872 0010657 146.3235 213.8693 15.45480831126870
RESURS-P 4              
1 59371U 24061A   26156.70289537  .00003390  00000+0  11199-3 0  9997
2 59371  97.2750 104.8027 0001285 130.6243 229.5111 15.32063410122005
LEGION 1                
1 59625U 24081A   26156.68092326  .00004384  00000+0  22767-3 0  9993
2 59625  97.5014 234.6614 0010525  54.8025 305.4192 15.16585151115793
LEGION 2                
1 59626U 24081B   26156.64477083  .00004184  00000+0  21751-3 0  9997
2 59626  97.5015 234.7236 0011872  24.1984 335.9804 15.16563731115794
ALOS-4 (DAICHI-4)       
1 60182U 24123A   26156.66092212  .00001703  00000+0  23491-3 0  9999
2 60182  97.9239 253.9964 0001687  98.9789 261.1614 14.79471288104173
LEGION 3                
1 60452U 24146A   26156.66528051  .00004470  00000+0  24251-3 0  9998
2 60452  45.0007  92.3449 0006782  96.3515 263.8136 15.15946779100271
LEGION 4                
1 60453U 24146B   26156.47063155  .00003712  00000+0  20345-3 0  9995
2 60453  44.9995 185.2997 0013965 247.5804 112.3596 15.15948413 99090
SENTINEL-2C             
1 60989U 24157A   26156.49421237  .00000121  00000+0  62696-4 0  9999
2 60989  98.5692 231.4412 0001225  78.7103 281.4218 14.30814562 91310
IONOSFERA-M 1           
1 61735U 24199A   26156.73065679  .00000056  00000+0  44813-4 0  9994
2 61735  98.7186  30.0231 0001576 125.8952 234.2372 14.22752153126074
IONOSFERA-M 2           
1 61736U 24199B   26156.69465429  .00000061  00000+0  46960-4 0  9998
2 61736  98.7185  29.8982 0001483  49.1080 311.0226 14.22755377129199
PRSC-EO1                
1 62725U 25012A   26156.71943903  .00004551  00000+0  22957-3 0  9990
2 62725  97.4223 229.4031 0004290 306.3282  53.7556 15.17616668 76451
BIOMASS                 
1 63772U 25090A   26156.37431355  .00000809  00000+0  15115-3 0  9994
2 63772  98.0746 343.8629 0001276  90.9912 269.1439 14.67539402 58954
GOSAT-GW (IBUKI GW)     
1 64694U 25141A   26156.66747598  .00000756  00000+0  14167-3 0  9993
2 64694  98.0572  94.1719 0001420  83.7035 276.4331 14.67550887 50154
IONOSFERA-M 3           
1 64876U 25155A   26156.70205954  .00000067  00000+0  50010-4 0  9993
2 64876  98.6025 118.8967 0000309 186.8208 173.2965 14.21484412 44774
