OBJECT_NAME,OBJECT_ID,EPOCH,MEAN_MOTION,ECCENTRICITY,INCLINATION,RA_OF_ASC_NODE,ARG_OF_PERICENTER,MEAN_ANOMALY,EPHEMERIS_TYPE,CLASSIFICATION_TYPE,NORAD_CAT_ID,ELEMENT_SET_NO,REV_AT_EPOCH,BSTAR,MEAN_MOTION_DOT,MEAN_MOTION_DDOT
SAUDISAT 5A,2018-102A,2026-06-05T16:54:25.335360,15.27925318,.0010111,97.3067,218.5074,165.5142,194.6390,0,U,43831,999,41392,.22709E-3,.6124E-4,0
SAUDISAT 5B,2018-102C,2026-06-05T14:15:47.354112,15.28187240,.0010727,97.3175,221.4480,168.5133,191.6353,0,U,43833,999,41402,.2209E-3,.6004E-4,0
GAOFEN-10R,2019-066A,2026-06-05T18:02:02.110848,14.83034871,.0005836,98.0497,110.2478,159.8687,200.2757,0,U,44622,999,36068,.16339E-3,.1274E-4,0
CARTOSAT-3,2019-081A,2026-06-05T19:53:15.621792,15.19201699,.0012252,97.4306,218.8783,186.7519,173.3552,0,U,44804,999,36174,.25447E-3,.5298E-4,0
GAOFEN-12 01,2019-082A,2026-06-05T17:23:52.548864,14.80448999,.0002507,97.8101,163.4070,83.9095,276.2403,0,U,44819,999,35239,.65558E-4,.451E-5,0
CSG-1,2019-092A,2026-06-05T18:39:00.066240,14.82154943,.000144,97.8887,340.5450,91.2589,268.8789,0,U,44873,999,34978,.66181E-4,.475E-5,0
NEMO-HD,2020-061F,2026-06-05T14:20:04.014816,15.44351274,.0002657,97.1920,218.6688,93.7596,266.3957,0,U,46277,999,32019,.24606E-3,.11266E-3,0
SENTINEL-6A,2020-086A,2026-06-05T08:58:41.627424,12.80929664,.0007954,66.0384,159.5883,270.2058,89.8046,0,U,46984,999,25881,.26461E-4,-.55E-6,0
CAS500-1,2021-022A,2026-06-05T17:47:29.446656,15.20195848,.0004448,97.3908,52.2254,347.7274,12.3852,0,U,47932,999,28902,.33444E-3,.718E-4,0
GAOFEN-12 02,2021-026A,2026-06-05T17:38:02.258304,14.80287029,.0003321,97.9920,154.9624,273.6782,86.4050,0,U,48079,999,28006,.63959E-4,.434E-5,0
PLEIADES NEO 3,2021-034A,2026-06-05T13:40:50.363040,14.81673923,.0001394,97.8935,231.5042,99.1938,260.9433,0,U,48268,999,27593,.42291E-4,.281E-5,0
PLEIADES NEO 4,2021-073E,2026-06-05T19:21:11.600064,14.81672211,.0001345,97.8935,231.7326,95.3769,264.7597,0,U,49070,999,25968,.16712E-3,.1263E-4,0
LANDSAT 9,2021-088A,2026-06-05T01:00:21.923424,14.57126109,.00015032,98.1854,226.3638,95.7050,264.4320,0,U,49260,999,24923,.10362107E-3,.422E-5,0
CSG-2,2022-008A,2026-06-05T17:50:21.488064,14.82166823,.000147,97.8882,340.5066,81.9332,278.2048,0,U,51444,999,23489,.10176E-3,.758E-5,0
GAOFEN-12 03,2022-069A,2026-06-05T16:40:45.410592,14.80013836,.0001505,97.8290,44.8540,110.1849,249.9525,0,U,52912,999,21291,.63863E-4,.433E-5,0
SWOT,2022-173A,2026-06-05T16:45:47.788128,14.00168192,.0000179,77.6112,50.8192,101.0524,259.0647,0,U,54754,999,17754,.53617E-5,.5E-7,0
GAOFEN-12 04,2023-123A,2026-06-05T17:06:56.720736,14.80206006,.0001771,97.9128,74.8956,88.4582,271.6832,0,U,57654,999,15093,.15438E-3,.1122E-4,0
PARS 1,2024-039Q,2026-06-05T17:25:05.442816,15.45480831,.0010657,97.4825,137.2872,146.3235,213.8693,0,U,59065,999,12687,.2456E-3,.11704E-3,0
RESURS-P 4,2024-061A,2026-06-05T16:52:10.159968,15.32063410,.0001285,97.2750,104.8027,130.6243,229.5111,0,U,59371,999,12200,.11199E-3,.339E-4,0
LEGION 1,2024-081A,2026-06-05T16:20:31.769664,15.16585151,.0010525,97.5014,234.6614,54.8025,305.4192,0,U,59625,999,11579,.22767E-3,.4384E-4,0
LEGION 2,2024-081B,2026-06-05T15:28:28.199712,15.16563731,.0011872,97.5015,234.7236,24.1984,335.9804,0,U,59626,999,11579,.21751E-3,.4184E-4,0
ALOS-4 (DAICHI-4),2024-123A,2026-06-05T15:51:43.671168,14.79471288,.0001687,97.9239,253.9964,98.9789,261.1614,0,U,60182,999,10417,.23491E-3,.1703E-4,0
LEGION 3,2024-146A,2026-06-05T15:58:00.236064,15.15946779,.0006782,45.0007,92.3449,96.3515,263.8136,0,U,60452,999,10027,.24251E-3,.447E-4,0
LEGION 4,2024-146B,2026-06-05T11:17:42.565920,15.15948413,.0013965,44.9995,185.2997,247.5804,112.3596,0,U,60453,999,9909,.20345E-3,.3712E-4,0
SENTINEL-2C,2024-157A,2026-06-05T11:51:39.948768,14.30814562,.0001225,98.5692,231.4412,78.7103,281.4218,0,U,60989,999,9131,.62696E-4,.121E-5,0
IONOSFERA-M 1,2024-199A,2026-06-05T17:32:08.746656,14.22752153,.0001576,98.7186,30.0231,125.8952,234.2372,0,U,61735,999,12607,.44813E-4,.56E-6,0
IONOSFERA-M 2,2024-199B,2026-06-05T16:40:18.130656,14.22755377,.0001483,98.7185,29.8982,49.1080,311.0226,0,U,61736,999,12919,.4696E-4,.61E-6,0
PRSC-EO1,2025-012A,2026-06-05T17:15:59.532192,15.17616668,.000429,97.4223,229.4031,306.3282,53.7556,0,U,62725,999,7645,.22957E-3,.4551E-4,0
BIOMASS,2025-090A,2026-06-05T08:59:00.690720,14.67539402,.0001276,98.0746,343.8629,90.9912,269.1439,0,U,63772,999,5895,.15115E-3,.809E-5,0
GOSAT-GW (IBUKI GW),2025-141A,2026-06-05T16:01:09.924672,14.67550887,.000142,98.0572,94.1719,83.7035,276.4331,0,U,64694,999,5015,.14167E-3,.756E-5,0
IONOSFERA-M 3,2025-155A,2026-06-05T16:50:57.944256,14.21484412,.0000309,98.6025,118.8967,186.8208,173.2965,0,U,64876,999,4477,.5001E-4,.67E-6,0
